#dP2024  3 25  0  0  0.00000000      96 __u+U IGS20 FIT  IAC
## 2307  86400.00000000   900.00000000 60394 0.0000000000000
+  120   C06C07C08C09C10C11C12C13C14C16C19C20C21C22C23C24C25
+        C26C27C28C29C30C32C33C34C35C36C37C38C39C40C41C42C43
+        C44C45C46E02E03E04E05E07E08E09E10E11E12E13E14E15E18
+        E19E21E24E25E26E27E30E31E33E34E36G01G02G03G04G05G06
+        G07G08G09G10G11G12G13G14G15G16G17G18G19G20G21G22G23
+        G24G25G26G27G28G29G30G31G32J02J03J04R01R02R03R04R05
+        R07R08R09R11R12R13R14R15R16R17R18R19R20R21R22R24R25
+        R26  0  0  0  0  0  0  0  0  0  0  0  0  0  0  0  0
++         9 10  9  7  8  9  7  9  9  9  7  7  6  7  6  8  7
++         7  5  7  6  7  6  8  6  6  7  6  9 10  9  7  6  7
++         7  6  6  6  7  5  5  5  6  6  7  6  7  6  6  6  7
++         5  5  6  5  7  6  8  6  6  6  6  6  6  6  5  6  9
++         6  6  6  5  9  6  5  6  6  5  6  6  5  6  5  6  5
++         6  6  5  6  6  5  6  6  5  8  7  6  6  7  6  7  7
++         5  6  7  6  7  8  6  6  6  7  6  8  5  7  6  7  6
++         5  0  0  0  0  0  0  0  0  0  0  0  0  0  0  0  0
%c M  cc GPS ccc cccc cccc cccc cccc ccccc ccccc ccccc ccccc
%c cc cc ccc ccc cccc cccc cccc cccc ccccc ccccc ccccc ccccc
%f  0.0000000  0.000000000  0.00000000000  0.000000000000000
%f  0.0000000  0.000000000  0.00000000000  0.000000000000000
%i    0    0    0    0      0      0      0      0         0
%i    0    0    0    0      0      0      0      0         0
/* INFORMATION & ANALYSIS CENTER (IAC)      ULTRA-RAPID DATA
/* S/V CLOCKS ARE ALIGNED TO GNSS TIME                      
/* G:C1WC2W R:C1PC2P E:C1XC5X C:C2IC6I J:C1CC2S             
/* PCV:IGS20_2290 OL/AL:FES2004  NONE     YN ORB:CoN CLK:CoN
*  2024 03 25  2 30  0.00000000
PC06 -16637.103220  35887.746224  14247.792449    296.737676
PC07  -3898.025537  35096.120643  23264.322023   -883.842051
PC08 -11105.844603  18601.612418 -36197.775024     33.461503
PC09 -11504.062525  34653.340207  20983.761125   -667.624310
PC10   3257.712155  38356.314049  18145.706096     30.647409
PC11   2197.455177  22863.858949 -15786.414497    477.188728
PC12 -10910.101231  25638.816923   1523.102756   -219.629197
PC13  -1970.602435  21517.750144 -36034.886798    427.072427
PC14  13457.160341  23369.455319  -7288.144008    484.127100
PC16 -20055.973716  35483.118874  10347.034684   -416.575248
PC19 -18989.738241 -20336.593480  -1878.050657   -917.395019
PC20  -7071.599416 -23009.061906  14102.105942   -290.892885
PC21 -10274.612260  11947.807574 -23012.807236   -961.581001
PC22 -20692.565038  -5782.883564 -17787.632405    -62.796215
PC23  27289.420130   -816.000482   5769.770737   -775.770049
PC24  -4027.683176  16820.020600  21886.290282    950.293572
PC25  17003.145397  10670.797378  19364.185719    357.863773
PC26 -21600.591085  13184.455170  11779.049066   -267.572948
PC27  15107.627767 -21331.221336  -9813.362184    289.438163
PC28  17646.220196  -5800.775594 -20824.462317    220.930099
PC29  -9915.495153 -16184.736226  20451.044503    259.099410
PC30   3832.156209 -26878.013607   6499.287807    -43.769926
PC32  10310.829060 -11931.638731  23041.850286   -589.027643
PC33  19127.748517  20255.528152   1832.367945   -961.966398
PC34  -2659.056265  26597.699974  -7986.292845    397.463506
PC35 -17460.132617   6182.354313  20844.796223    403.183030
PC36 -16489.378636 -11213.415136 -19509.671813     29.509977
PC37  22086.141110 -12553.341086 -11516.316991   -948.651902
PC38 -19272.873929  18846.445680 -32405.795479    144.816870
PC39 -22182.518245  35524.574506   3750.716214     -7.701975
PC40  -7334.849554  31660.553371  27003.856638    -62.319601
PC41  20999.546718   6475.078441  17270.187842   -911.634979
PC42   5759.972703  22633.193632 -15252.785370   -445.428253
PC43   9447.489521  17035.829021 -19985.646425     65.420790
PC44 -14368.425390  21756.288651   9883.102779    423.395764
PC45 -27313.082323    814.833253  -5730.395892    -77.234899
PC46   3047.857844 -16652.374461 -22188.498310   -134.397074
PE02  19096.581313  -7677.502903 -21277.526826    113.947131
PE03  12477.477561 -17165.512056  20632.282320   -102.608301
PE04   -213.800329  29130.725875  -5246.565514   -357.574262
PE05  17206.381287   4605.342937  23650.403640   4732.219106
PE07 -11709.354049 -24111.459372 -12534.957236   -110.794117
PE08    709.747617 -28967.711914   6017.293332   -244.234149
PE09  11600.976035  24203.271472  12506.660864   -382.620484
PE10    157.349650  18444.823718 -23154.600948   -611.896918
PE11  10714.799375  12024.690272 -24845.145153   3132.406754
PE12  -9223.803448  21476.789358 -18148.280486   -963.629826
PE13 -10037.651468 -12446.292857  24913.356436    -20.686405
PE14  19760.790947   3255.312402 -22917.658616     75.978168
PE15   9790.582084 -21549.170697  17790.747066    -93.158414
PE18 -14037.751719  15029.133392  17766.371561    473.739031
PE19 -13374.957187  15016.099330 -21707.890307   -369.778140
PE21 -27919.256770  -6633.064050   7258.733473   -585.696713
PE24  20424.395638  17854.578316  11794.255311   -669.812534
PE25  27939.910898   6913.038417  -6898.613510      2.524391
PE26 -23971.063302   4201.363450  16848.225278    406.178243
PE27 -20755.019987 -17680.014374 -11543.939070   -307.215284
PE30  -1165.131655 -18184.800233 -23345.990397   -129.203342
PE31   1432.473515  18171.596184  23319.962515    -19.097380
PE33 -23790.016307  17608.176955    188.110659      9.486370
PE34  23554.210491 -17925.187330    344.931525   -101.854795
PE36  23684.932704  -3790.397146 -17353.997813   -203.914763
PG01  -4233.560982  18528.410911 -18757.221759    175.821024
PG02 -12591.817132  20860.945213  -9748.552594   -464.756707
PG03  -1361.111052  15188.765097 -21906.461518    271.913117
PG04  -2427.932425  25326.506961  -7369.711319    322.915419
PG05  15739.216231  -8629.378131  19433.246600   -166.636617
PG06  20223.536533  -1264.325040 -17165.396965    353.099311
PG07   6454.401775  14600.182619  21677.727447    -91.985740
PG08  -7417.752932  20165.135058  15223.125809     78.354213
PG09   7897.473447  24758.667867   5265.810647    136.329489
PG10 -24340.918959 -10966.265975   1659.905402     -2.421263
PG11  23278.884150 -10713.151830  -6867.145320   -616.846578
PG12   3678.340942 -15100.850135 -21830.388449   -490.321128
PG13  13180.965308 -12190.110266  19291.805738    637.036698
PG14  22454.604033  13533.454758   4897.709056    359.134145
PG15   4960.345710 -21137.709909  14668.928904    141.211098
PG16 -20332.398252   2800.437970  16767.608096   -333.208961
PG17  12425.252443  16568.706876 -16120.098191    712.358215
PG18  -6612.669267 -13573.960222  21849.319971   -582.026476
PG19  14757.317398   7363.703775 -21081.302118    458.682375
PG20  24045.430610  -2819.830913  10806.687136    382.690035
PG21 -15980.937081  19808.691193  -4967.903445    130.019929
PG22  24149.735608  10192.665184  -2726.111186     10.783610
PG23 -17418.673155 -15605.143034  12794.839277    184.863959
PG24  13012.524130 -21331.191647  -8781.697389   -450.869639
PG25  -8100.234455 -17441.790788 -18770.334313    492.161794
PG26 -25743.605841  -3030.188561   6461.691906    175.418500
PG27 -13414.919639   8599.296675  20890.498536    -14.189778
PG28 -18979.569408   -970.722146 -18568.937753   -177.012272
PG29  -4138.328353 -25926.500007   3566.351846   -603.900340
PG30  16109.319757   6409.928869  20321.198543   -415.022328
PG31 -23169.230721   7243.213995 -11446.591731   -228.010247
PG32 -14548.158341 -13227.350521 -17742.128198   -616.792767
PJ02 -27776.102386  21306.645144  28612.640283     -3.276781
PJ03 -34325.118790  24472.322847   6960.026818     -0.158366
PJ04 -20861.186163  24066.144600 -22535.379828     50.609721
PR01 -16171.394738 -12188.169374 -15493.995749     80.590481
PR02 -10086.909790   4000.521821 -23035.565560    -22.639732
PR03   1349.655331  18600.338971 -17321.211112     96.981890
PR04  11566.544029  22608.940945  -2295.506884    229.037384
PR05  15605.867991  14542.580737  13988.776838    128.928653
PR07  -1927.491924 -19155.751140  16807.088586     78.699838
PR08 -11791.134486 -22537.145317   2202.952012    -74.853051
PR09  23106.803836  -5436.112395  -9430.685584    177.220780
PR11  -8515.429870 -10208.627181 -21759.270233     30.144294
PR12 -23837.671886  -3788.186659  -8253.570704     38.198780
PR13 -24164.394250   3893.244108   7171.502050    -45.622046
PR14  -9166.939186  10508.822424  21361.234195     26.262889
PR15  10065.274465  10115.343638  21158.821464     81.071298
PR16  23749.360932   3752.736623   8573.585984     24.279159
PR17 -10970.238108  22640.754716  -4307.492112     71.968110
PR18   -834.058483  17553.601588 -18450.826175    133.822272
PR19   8804.620495   5508.322139 -23300.004625   -270.611704
PR20  16324.117979 -14000.069801 -13750.497562   -110.298116
PR21  11104.594121 -22524.235848   4415.461277    -87.245305
PR22    251.926095 -17065.377031  18989.305328    114.411567
PR24 -15959.284128  14921.261817  13186.516094    -49.110710
PR25  11714.249570 -22201.477935   4493.745329    -24.845896
PR26 -11432.623162 -22560.980770   3235.451954    -28.507771
EOF
